{
  "stations": [
    {
      "stationname": "Station Delft",
      "placename": "Delft",
      "todo": [
        "Pizzeria",
        "IJssallon"
      ],
      "transfer": [
        "Tram",
        "Trein"
      ],
      "accessibility": "Toegankelijk, ook met rolstoel",
      "rush": 4
    },
    {
      "stationname": "Zuidpoort",
      "placename": "Delft",
      "todo": [
        "Supermarkt",
        "Winkelstraten",
        "Terrasjes",
        "Bioscoop"
      ],
      "transfer": {

      },
      "accessibility": "Toegankelijk, ook met rolstoel",
      "rush": 3
    },
    {
      "stationname": "Julianalaan",
      "placename": "Delft",
      "todo": [
        "IJszaak",
        "Klein parkje"
      ],
      "transfer": [

      ],
      "accessibility": "Toegankelijk, ook met rolstoel",
      "rush": 1
    },
    {
      "stationname": "Aula",
      "placename": "Delft",
      "todo": [
        "Technische universiteit Delft",
        "Royal Delft (Museum aardewerk)"
      ],
      "transfer": [

      ],
      "accessibility": "Toegankelijk, ook met rolstoel",
      "rush": 3
    },
    {
      "stationname": "Prof. Krausstraat",
      "placename": "Delft",
      "todo": [
        "Kapper",
        "Snackbar"
      ],
      "transfer": [

      ],
      "accessibility": "Toegankelijk, ook met rolstoel",
      "rush": 1
    },
    {
      "stationname": "Laan Der Zeven Linden",
      "placename": "Delfgauw",
      "todo": [
        "Albert Heijn",
        "Verhage"
      ],
      "transfer": [

      ],
      "accessibility": "Toegankelijk maar kan wat smal zijn voor een rolstoel",
      "rush": 2
    },
    {
      "stationname": "Delfgauwseplein",
      "placename": "Delfgauw",
      "todo": [
        "Pizzeria",
        "Verzorgingszaak"
      ],
      "transfer": [

      ],
      "accessibility": "Toegankelijk, ook met rolstoel",
      "rush": 1
    },
    {
      "stationname": "Rijskade",
      "placename": "Pijnacker",
      "todo": [
        "Niks"
      ],
      "transfer": [

      ],
      "accessibility": "Toegankelijk, ook met rolstoel",
      "rush": 1
    },
    {
      "stationname": "Raadhuisplein",
      "placename": "Pijnacker",
      "todo": [
        "Restaurants",
        "Winkelcentrum",
        "Markt in het weekend"
      ],
      "transfer": [

      ],
      "accessibility": "Toegankelijk, ook voor rolstoel",
      "rush": 2
    },
    {
      "stationname": "Station Pijnacker Centrum",
      "placename": "Pijnacker",
      "todo": [
        "Apotheek"
      ],
      "transfer": [
        "Metro"
      ],
      "accessibility": "Toegankelijk, ook voor rolstoel",
      "rush": 2
    },
    {
      "stationname": "Vlielandseweg",
      "placename": "Pijnacker",
      "todo": [
        "Niks"
      ],
      "transfer": [

      ],
      "accessibility": "Toegankelijk, ook voor rolstoel",
      "rush": 1
    },
    {
      "stationname": "Zijdeweg",
      "placename": "Pijnacker",
      "todo": [
        "Dierenwinkel",
        "Electronicawinkel"
      ],
      "transfer": [

      ],
      "accessibility": "Toegankelijk, ook voor rolstoel",
      "rush": 1
    },
    {
      "stationname": "Katwijkerlaan Nr. 105",
      "placename": "Pijnacker",
      "todo": [
        "Beautycentrum"
      ],
      "transfer": [

      ],
      "accessibility": "Toegankelijk, ook voor rolstoel",
      "rush": 1
    },
    {
      "stationname": "Driesprong",
      "placename": "Zoetermeer",
      "todo": [
        "Tuincentrum"
      ],
      "transfer": [

      ],
      "accessibility": "toegankelijk, ook voor rolstoel",
      "rush": 1
    },
    {
      "stationname": "Nathaliegang",
      "placename": "Zoetermeer",
      "todo": [
        "Winkelcentrum",
        "Eetgelegenheden",
        "Bibliotheek"
      ],
      "transfer": [

      ],
      "accessibility": "Toegankelijk, ook voor rolstoel",
      "rush": 3
    },
    {
      "stationname": "Station Zoetermeer",
      "placename": "Zoetermeer",
      "todo": [
        "Station"
      ],
      "transfer": [
        "Trein"
      ],
      "accessibility": "Toegankelijk, ook voor rolstoel",
      "rush": 4
    },
    {
      "stationname": "Viaduct Afrikaweg",
      "placename": "Zoetermeer",
      "todo": [
        "Niks"
      ],
      "transfer": [

      ],
      "accessibility": "Toegankelijk, ook voor rolstoel",
      "rush": 1
    },
    {
      "stationname": "Meerzichtlaan",
      "placename": "Zoetermeer",
      "todo": [
        "Graffititunnel"
      ],
      "transfer": [

      ],
      "accessibility": "Toegankelijk, ook voor rolstoel",
      "rush": 1
    },
    {
      "stationname": "Centrum West",
      "placename": "Zoetermeer",
      "todo": [
        "Eetgelegenheden",
        "Winkelcentrum"
      ],
      "transfer": [
        "Tram",
        "Trein"
      ],
      "accessibility": "Toegankelijk, ook voor rolstoel",
      "rush": 4
    }
  ]
}